DMSP 5D-3 F16 (USA 172) 
1 28054U 03048A   26072.02698770  .00000172  00000+0  11366-3 0  9999
2 28054  98.9989  95.1793 0008038  64.3897 325.1049 14.14463469155897
METEOSAT-9 (MSG-2)      
1 28912U 05049B   26071.50955667  .00000127  00000+0  00000+0 0  9997
2 28912   9.1425  55.0998 0000173  47.0991 297.2304  1.00267057  6025
DMSP 5D-3 F17 (USA 191) 
1 29522U 06050A   26072.00150530  .00000218  00000+0  13526-3 0  9992
2 29522  98.7413  80.5294 0009586 337.0916  22.9829 14.14965714998818
FENGYUN 3A              
1 32958U 08026A   26071.83655613  .00000121  00000+0  77901-4 0  9997
2 32958  98.6798  14.5167 0009589  50.0422 310.1595 14.19547519921736
GOES 14                 
1 35491U 09033A   26071.82465904  .00000114  00000+0  00000+0 0  9995
2 35491   1.4396  84.2912 0001695 273.7122 306.0203  1.00102741  5621
DMSP 5D-3 F18 (USA 210) 
1 35951U 09057A   26071.96545061  .00000319  00000+0  18853-3 0  9996
2 35951  98.8967  52.9838 0011316 159.0723 201.0915 14.14838255845989
EWS-G2 (GOES 15)        
1 36411U 10008A   26071.85565236  .00000022  00000+0  00000+0 0  9992
2 36411   1.0277  84.9464 0002462  17.2209  79.7697  1.00270175 58678
COMS 1                  
1 36744U 10032A   26071.31189199 -.00000343  00000+0  00000+0 0  9996
2 36744   4.5541  76.7466 0001005 293.2917  40.3441  1.00270092 50114
FENGYUN 3B              
1 37214U 10059A   26071.99487683  .00000056  00000+0  52180-4 0  9992
2 37214  98.9762 117.5477 0023122  99.1444  16.1966 14.14817823793820
SUOMI NPP               
1 37849U 11061A   26071.91505046  .00000090  00000+0  63727-4 0  9993
2 37849  98.7872  13.4921 0000613 205.7710 154.3435 14.19544560744780
METEOSAT-10 (MSG-3)     
1 38552U 12035B   26071.78573722 -.00000005  00000+0  00000+0 0  9995
2 38552   4.4423  61.4212 0002383 288.4422 103.5885  1.00269184 49895
METOP-B                 
1 38771U 12049A   26071.96455533  .00000120  00000+0  74982-4 0  9994
2 38771  98.6635 125.3302 0001259 248.0013 112.1031 14.21445854699591
INSAT-3D                
1 39216U 13038B   26071.74006368 -.00000339  00000+0  00000+0 0  9990
2 39216   1.6756  83.7902 0001546 257.1523 225.3286  1.00269637 46112
FENGYUN 3C              
1 39260U 13052A   26071.99755328  .00000153  00000+0  99103-4 0  9999
2 39260  98.4896  50.3353 0013707 303.0801  56.9057 14.15730268644955
METEOR-M 2              
1 40069U 14037A   26071.99177604  .00000213  00000+0  11686-3 0  9993
2 40069  98.5034  51.1832 0005173 327.3627  32.7230 14.21430583605656
HIMAWARI-8              
1 40267U 14060A   26071.81356566 -.00000275  00000+0  00000+0 0  9999
2 40267   0.0160 168.9442 0000291 163.4125 271.6546  1.00272285 41795
FENGYUN 2G              
1 40367U 14090A   26071.63818705 -.00000301  00000+0  00000+0 0  9991
2 40367   5.3936  73.9817 0001474 140.7321 285.0261  1.00271728 41037
METEOSAT-11 (MSG-4)     
1 40732U 15034A   26071.78755723  .00000062  00000+0  00000+0 0  9995
2 40732   2.9591  71.6311 0001834 273.1631 118.4036  1.00268749  6255
ELEKTRO-L 2             
1 41105U 15074A   26071.71155022 -.00000115  00000+0  00000+0 0  9993
2 41105   6.4508  71.7056 0002982 247.4788  92.7956  1.00271353 37531
INSAT-3DR               
1 41752U 16054A   26071.85979898 -.00000077  00000+0  00000+0 0  9997
2 41752   0.0679  92.0747 0012725 190.1844 271.7528  1.00272107 34858
HIMAWARI-9              
1 41836U 16064A   26071.81356566 -.00000275  00000+0  00000+0 0  9998
2 41836   0.0174 192.1711 0001485 202.9510 208.9668  1.00270247 34240
GOES 16                 
1 41866U 16071A   26071.69335014 -.00000091  00000+0  00000+0 0  9996
2 41866   0.1258  87.3591 0002192 230.8184 357.0620  1.00272981 34130
FENGYUN 4A              
1 41882U 16077A   26071.81018564 -.00000356  00000+0  00000+0 0  9996
2 41882   2.0762  81.3051 0007142 133.2542  11.2883  1.00275477 33961
CYGFM05                 
1 41884U 16078A   26071.72308135  .00025924  00000+0  41132-3 0  9997
2 41884  34.9571 177.3293 0006945 312.8932  47.1207 15.52348397513737
CYGFM04                 
1 41885U 16078B   26071.63716500  .00028987  00000+0  40508-3 0  9995
2 41885  34.9327 149.8592 0005447 347.5400  12.5189 15.55810508513921
CYGFM02                 
1 41886U 16078C   26071.59801475  .00033751  00000+0  43183-3 0  9994
2 41886  34.9410 146.9523 0006376 349.8006  10.2589 15.58138671514068
CYGFM01                 
1 41887U 16078D   26071.68507219  .00026782  00000+0  41806-3 0  9990
2 41887  34.9400 179.3466 0006682 303.8575  56.1512 15.52795416513676
CYGFM08                 
1 41888U 16078E   26071.66138070  .00028534  00000+0  41566-3 0  9994
2 41888  34.9433 161.2999 0007779 332.4831  27.5480 15.54670743513915
CYGFM07                 
1 41890U 16078G   26071.62746334  .00029520  00000+0  42470-3 0  9992
2 41890  34.9450 149.9621 0005906 350.6765   9.3849 15.55018998513938
CYGFM03                 
1 41891U 16078H   26071.59849647  .00028828  00000+0  41481-3 0  9991
2 41891  34.9406 152.1276 0005380 333.9647  26.0805 15.55021424513904
FENGYUN 3D              
1 43010U 17072A   26072.01899875 -.00000048  00000+0 -10313-5 0  9995
2 43010  99.0038  44.7526 0001409   6.4204 353.6989 14.19716048431346
NOAA 20 (JPSS-1)        
1 43013U 17073A   26071.92974219  .00000091  00000+0  64184-4 0  9994
2 43013  98.7694  12.2846 0001340 133.3260 226.8028 14.19537037430819
GOES 17                 
1 43226U 18022A   26071.83930577 -.00000182  00000+0  00000+0 0  9998
2 43226   0.6885  87.3589 0001646 234.7520  60.9977  1.00272990 29454
FENGYUN 2H              
1 43491U 18050A   26071.73009697 -.00000127  00000+0  00000+0 0  9991
2 43491   2.7808  80.2497 0001348 170.5215 261.5256  1.00272763 28471
METOP-C                 
1 43689U 18087A   26071.98881477  .00000126  00000+0  77414-4 0  9997
2 43689  98.6758 133.3057 0002191  95.2825 264.8602 14.21498163381167
GEO-KOMPSAT-2A          
1 43823U 18100A   26071.79291428 -.00000344  00000+0  00000+0 0  9998
2 43823   0.0349  21.3908 0001631  34.3084 168.4403  1.00272181 26662
METEOR-M2 2             
1 44387U 19038A   26071.93621156  .00000114  00000+0  69201-4 0  9993
2 44387  98.9096  57.8329 0000721 354.1019   6.0151 14.24335430347596
ARKTIKA-M 1             
1 47719U 21016A   26065.31200600 -.00000142  00000+0  00000+0 0  9995
2 47719  63.2063  72.3539 7244489 269.4705  15.1937  2.00620361 36724
FENGYUN 3E              
1 49008U 21062A   26072.01402334 -.00000389  00000+0 -16274-3 0  9990
2 49008  98.7521  76.4909 0002144  36.2498 323.8824 14.19892675242935
GOES 18                 
1 51850U 22021A   26071.68728345  .00000097  00000+0  00000+0 0  9999
2 51850   0.0339  55.0499 0000823   4.5766 221.1055  1.00272383  5624
NOAA 21 (JPSS-2)        
1 54234U 22150A   26071.89392905  .00000081  00000+0  59432-4 0  9994
2 54234  98.7555  12.1231 0002702 100.9854 259.1626 14.19553166172885
METEOSAT-12 (MTG-I1)    
1 54743U 22170C   26071.85698584 -.00000007  00000+0  00000+0 0  9990
2 54743   0.7097  22.7051 0001768 292.1913 163.7647  1.00271204 12019
TIANMU-1 03             
1 55973U 23039A   26071.98968278  .00019024  00000+0  41418-3 0  9995
2 55973  97.5181 242.4199 0003984  91.8749 268.2956 15.44329484165975
TIANMU-1 04             
1 55974U 23039B   26071.94747657  .00019801  00000+0  42497-3 0  9999
2 55974  97.5114 241.5355 0004595  86.8890 273.2884 15.44742618165970
TIANMU-1 05             
1 55975U 23039C   26071.96639959  .00019505  00000+0  42545-3 0  9992
2 55975  97.5160 242.0460 0003884 108.8988 251.2681 15.44269103165950
TIANMU-1 06             
1 55976U 23039D   26071.94722256  .00020334  00000+0  43593-3 0  9990
2 55976  97.5171 242.5695 0004134 104.0951 256.0757 15.44771109165978
FENGYUN 3G              
1 56232U 23055A   26071.98076075  .00027775  00000+0  45700-3 0  9997
2 56232  49.9925 122.0353 0006049 308.4563  51.5861 15.52074172165059
METEOR-M2 3             
1 57166U 23091A   26071.97941373  .00000000  00000+0  18739-4 0  9990
2 57166  98.6207 128.8755 0005110  91.7031 268.4734 14.24038007140821
TIANMU-1 07             
1 57399U 23101A   26071.98757184  .00007558  00000+0  26938-3 0  9990
2 57399  97.2724 124.8633 0004852 128.0362 232.1317 15.29181773146941
TIANMU-1 08             
1 57400U 23101B   26066.00237819  .00000346  00000+0  14775-4 0  9993
2 57400  97.2717 118.7901 0006380 134.2174 225.9592 15.29204229146020
TIANMU-1 09             
1 57401U 23101C   26071.93911073  .00008224  00000+0  29329-3 0  9996
2 57401  97.2670 124.0672 0005106 131.7369 228.4309 15.29132546146933
TIANMU-1 10             
1 57402U 23101D   26071.97300757  .00008447  00000+0  29982-3 0  9994
2 57402  97.2749 125.0472 0007076 125.0287 235.1619 15.29271115146938
FENGYUN 3F              
1 57490U 23111A   26071.99989662  .00000065  00000+0  51087-4 0  9992
2 57490  98.6916 143.7712 0001197  77.9440 282.1870 14.19920274135219
ARKTIKA-M 2             
1 58584U 23198A   26064.07652728  .00000150  00000+0  00000+0 0  9992
2 58584  63.2186 165.9003 6877723 267.7621  18.8474  2.00612038 16239
TIANMU-1 11             
1 58645U 23205A   26072.01936490  .00007191  00000+0  28275-3 0  9993
2 58645  97.3549  95.1162 0008591 356.6096   3.5082 15.25930841122853
TIANMU-1 12             
1 58646U 23205B   26071.92078926  .00007178  00000+0  28299-3 0  9995
2 58646  97.3537  94.7972 0006371 342.0720  18.0293 15.25857391122822
TIANMU-1 13             
1 58647U 23205C   26072.01715714  .00007369  00000+0  29001-3 0  9994
2 58647  97.3565  95.1323 0006115 319.3054  40.7726 15.25909131122836
TIANMU-1 14             
1 58648U 23205D   26072.00177810  .00007490  00000+0  29489-3 0  9998
2 58648  97.3499  94.3831 0006988 323.5351  36.5411 15.25884708122839
TIANMU-1 19             
1 58660U 23208A   26071.93483361  .00011217  00000+0  38974-3 0  9998
2 58660  97.4382 187.9254 0003836 302.3947  57.6922 15.29910656122600
TIANMU-1 20             
1 58661U 23208B   26071.98198807  .00010864  00000+0  36387-3 0  9995
2 58661  97.4324 188.5098 0006034 311.1325  48.9394 15.31100102122696
TIANMU-1 21             
1 58662U 23208C   26071.97617980  .00011933  00000+0  37505-3 0  9994
2 58662  97.4377 190.7907 0005866 304.5118  55.5570 15.33123007122812
TIANMU-1 22             
1 58663U 23208D   26071.95328745  .00009902  00000+0  34853-3 0  9997
2 58663  97.4378 187.9527 0002911 339.9941  20.1184 15.29522376122618
TIANMU-1 15             
1 58700U 24004A   26071.99951797  .00007622  00000+0  30012-3 0  9997
2 58700  97.4676 258.2331 0006412 337.7568  22.3391 15.25888103121103
TIANMU-1 16             
1 58701U 24004B   26071.98293090  .00008160  00000+0  32078-3 0  9994
2 58701  97.4618 257.5373 0004915 344.2359  15.8726 15.25923982121109
TIANMU-1 17             
1 58702U 24004C   26071.96518600  .00007447  00000+0  29276-3 0  9993
2 58702  97.4650 257.9749 0004170 348.1935  11.9205 15.25959165121092
TIANMU-1 18             
1 58703U 24004D   26071.95046819  .00007270  00000+0  28634-3 0  9992
2 58703  97.4667 258.1721 0003585 349.8652  10.2514 15.25904712121090
INSAT-3DS               
1 58990U 24033A   26071.80194396 -.00000156  00000+0  00000+0 0  9990
2 58990   0.0343 250.2959 0002158 118.1099 172.7951  1.00272278 46102
METEOR-M2 4             
1 59051U 24039A   26071.95523685  .00000057  00000+0  44997-4 0  9995
2 59051  98.6908  32.5171 0008197  88.2287 271.9830 14.22417879105585
GOES 19                 
1 60133U 24119A   26071.84207912 -.00000248  00000+0  00000+0 0  9992
2 60133   0.0398 352.5700 0001092  48.0633 357.8046  1.00272160  5998
FENGYUN 3H              
1 65815U 25219A   26071.99611360  .00000102  00000+0  68290-4 0  9996
2 65815  98.6687  14.6768 0001222  60.4667 299.6631 14.19933651 23732
